SBSS (USA 216)          
1 37168U 10048A   26068.88624904  .00004946  00000+0  24191-3 0  9993
2 37168  97.7474 312.3885 0082264 184.8326 306.5835 15.15724210837421
STARLINK-1577           
1 46063U 20055AN  26068.52694568  .00010562  00000+0  36800-3 0  9991
2 46063  53.1613 114.5871 0001392  79.7271 280.3887 15.30219657309046
